FENGYUN 1C DEB          
1 32241U 99025CWP 17342.04011776  .00000426  00000-0  22453-3 0  9991
2 32241  98.9581 283.0094 0179269 242.6545 115.6280 14.11363848524016
